{"type": "FeatureCollection", "features": [{"type": "Feature", "properties": {"norad_id": 25730, "name": "FENGYUN 1C", "group": "fengyun-1c-debris", "lat": 18.00926199534869, "lon": -110.05411987400068, "alt_km": 809.8580079098501, "timestamp": "2025-12-26T19:22:39.177693+00:00", "meta": {"OBJECT_NAME": "FENGYUN 1C", "OBJECT_ID": "1999-025A", "EPOCH": "2025-12-26T15:15:18.010368", "MEAN_MOTION": 14.2612449, "ECCENTRICITY": 0.0010121, "INCLINATION": 98.8817, "RA_OF_ASC_NODE": 66.8579, "ARG_OF_PERICENTER": 30.4304, "MEAN_ANOMALY": 329.7461, "EPHEMERIS_TYPE": 0, "CLASSIFICATION_TYPE": "U", "NORAD_CAT_ID": 25730, "ELEMENT_SET_NO": 999, "REV_AT_EPOCH": 37335, "BSTAR": 0.0012243416, "MEAN_MOTION_DOT": 2.885e-05, "MEAN_MOTION_DDOT": 0}, "tle": {"line1": "1 25730U 99025A   25360.63562512  .00002885  00000+0  12243-2 0  9994", "line2": "2 25730  98.8817  66.8579 0010121  30.4304 329.7461 14.26124490373356"}}, "geometry": {"type": "Point", "coordinates": [-110.05411987400068, 18.00926199534869]}}, {"type": "Feature", "properties": {"norad_id": 29733, "name": "FENGYUN 1C DEB", "group": "fengyun-1c-debris", "lat": 36.15257956209027, "lon": 47.91701824292169, "alt_km": 1556.0649314457542, "timestamp": "2025-12-26T19:22:39.177713+00:00", "meta": {"OBJECT_NAME": "FENGYUN 1C DEB", "OBJECT_ID": "1999-025X", "EPOCH": "2025-12-26T02:40:10.134624", "MEAN_MOTION": 12.96493606, "ECCENTRICITY": 0.05696145, "INCLINATION": 99.2235, "RA_OF_ASC_NODE": 54.1443, "ARG_OF_PERICENTER": 171.2777, "MEAN_ANOMALY": 222.752, "EPHEMERIS_TYPE": 0, "CLASSIFICATION_TYPE": "U", "NORAD_CAT_ID": 29733, "ELEMENT_SET_NO": 999, "REV_AT_EPOCH": 89293, "BSTAR": 0.00070368021, "MEAN_MOTION_DOT": 3.92e-06, "MEAN_MOTION_DDOT": 0}, "tle": {"line1": "1 29733U 99025X   25360.11122841  .00000392  00000+0  70368-3 0  9995", "line2": "2 29733  99.2235  54.1443 0569614 171.2777 222.7520 12.96493606892937"}}, "geometry": {"type": "Point", "coordinates": [47.91701824292169, 36.15257956209027]}}, {"type": "Feature", "properties": {"norad_id": 29734, "name": "FENGYUN 1C DEB", "group": "fengyun-1c-debris", "lat": -40.054183967203464, "lon": -63.78305459245561, "alt_km": 856.1443245906339, "timestamp": "2025-12-26T19:22:39.177727+00:00", "meta": {"OBJECT_NAME": "FENGYUN 1C DEB", "OBJECT_ID": "1999-025Y", "EPOCH": "2025-12-25T17:40:09.329376", "MEAN_MOTION": 12.91377468, "ECCENTRICITY": 0.06155822, "INCLINATION": 99.1705, "RA_OF_ASC_NODE": 287.5163, "ARG_OF_PERICENTER": 342.2357, "MEAN_ANOMALY": 42.1053, "EPHEMERIS_TYPE": 0, "CLASSIFICATION_TYPE": "U", "NORAD_CAT_ID": 29734, "ELEMENT_SET_NO": 999, "REV_AT_EPOCH": 88716, "BSTAR": 0.0049989339, "MEAN_MOTION_DOT": 3.084e-05, "MEAN_MOTION_DDOT": 0}, "tle": {"line1": "1 29734U 99025Y   25359.73621909  .00003084  00000+0  49989-2 0  9996", "line2": "2 29734  99.1705 287.5163 0615582 342.2357  42.1053 12.91377468887166"}}, "geometry": {"type": "Point", "coordinates": [-63.78305459245561, -40.054183967203464]}}, {"type": "Feature", "properties": {"norad_id": 29735, "name": "FENGYUN 1C DEB", "group": "fengyun-1c-debris", "lat": 44.66112717934575, "lon": 102.83071359084433, "alt_km": 823.5982155066076, "timestamp": "2025-12-26T19:22:39.177746+00:00", "meta": {"OBJECT_NAME": "FENGYUN 1C DEB", "OBJECT_ID": "1999-025Z", "EPOCH": "2025-12-26T11:09:38.909088", "MEAN_MOTION": 12.75077413, "ECCENTRICITY": 0.0697736, "INCLINATION": 99.3915, "RA_OF_ASC_NODE": 273.1329, "ARG_OF_PERICENTER": 144.6812, "MEAN_ANOMALY": 220.2638, "EPHEMERIS_TYPE": 0, "CLASSIFICATION_TYPE": "U", "NORAD_CAT_ID": 29735, "ELEMENT_SET_NO": 999, "REV_AT_EPOCH": 87590, "BSTAR": 0.0026024979, "MEAN_MOTION_DOT": 1.488e-05, "MEAN_MOTION_DDOT": 0}, "tle": {"line1": "1 29735U 99025Z   25360.46503367  .00001488  00000+0  26025-2 0  9998", "line2": "2 29735  99.3915 273.1329 0697736 144.6812 220.2638 12.75077413875904"}}, "geometry": {"type": "Point", "coordinates": [102.83071359084433, 44.66112717934575]}}, {"type": "Feature", "properties": {"norad_id": 29736, "name": "FENGYUN 1C DEB", "group": "fengyun-1c-debris", "lat": 80.12280455950844, "lon": 105.41356929776718, "alt_km": 1302.8469801474093, "timestamp": "2025-12-26T19:22:39.177757+00:00", "meta": {"OBJECT_NAME": "FENGYUN 1C DEB", "OBJECT_ID": "1999-025AA", "EPOCH": "2025-12-26T11:35:46.379616", "MEAN_MOTION": 12.57513766, "ECCENTRICITY": 0.0724176, "INCLINATION": 99.4028, "RA_OF_ASC_NODE": 177.2518, "ARG_OF_PERICENTER": 169.2141, "MEAN_ANOMALY": 258.8297, "EPHEMERIS_TYPE": 0, "CLASSIFICATION_TYPE": "U", "NORAD_CAT_ID": 29736, "ELEMENT_SET_NO": 999, "REV_AT_EPOCH": 86717, "BSTAR": 0.0018604698, "MEAN_MOTION_DOT": 8.16e-06, "MEAN_MOTION_DDOT": 0}, "tle": {"line1": "1 29736U 99025AA  25360.48317569  .00000816  00000+0  18605-2 0  9997", "line2": "2 29736  99.4028 177.2518 0724176 169.2141 258.8297 12.57513766867176"}}, "geometry": {"type": "Point", "coordinates": [105.41356929776718, 80.12280455950844]}}, {"type": "Feature", "properties": {"norad_id": 29737, "name": "FENGYUN 1C DEB", "group": "fengyun-1c-debris", "lat": -65.90342204658904, "lon": 111.36907554867996, "alt_km": 1803.8197984792732, "timestamp": "2025-12-26T19:22:39.177768+00:00", "meta": {"OBJECT_NAME": "FENGYUN 1C DEB", "OBJECT_ID": "1999-025AB", "EPOCH": "2025-12-25T19:31:42.737376", "MEAN_MOTION": 12.65694205, "ECCENTRICITY": 0.06960683, "INCLINATION": 99.5803, "RA_OF_ASC_NODE": 312.7236, "ARG_OF_PERICENTER": 110.0706, "MEAN_ANOMALY": 286.6251, "EPHEMERIS_TYPE": 0, "CLASSIFICATION_TYPE": "U", "NORAD_CAT_ID": 29737, "ELEMENT_SET_NO": 999, "REV_AT_EPOCH": 87034, "BSTAR": 0.0040702446, "MEAN_MOTION_DOT": 1.957e-05, "MEAN_MOTION_DDOT": 0}, "tle": {"line1": "1 29737U 99025AB  25359.81368909  .00001957  00000+0  40702-2 0  9997", "line2": "2 29737  99.5803 312.7236 0696068 110.0706 286.6251 12.65694205870340"}}, "geometry": {"type": "Point", "coordinates": [111.36907554867996, -65.90342204658904]}}, {"type": "Feature", "properties": {"norad_id": 29738, "name": "FENGYUN 1C DEB", "group": "fengyun-1c-debris", "lat": 42.4257562833061, "lon": 156.4659273548565, "alt_km": 1898.7300971396953, "timestamp": "2025-12-26T19:22:39.177779+00:00", "meta": {"OBJECT_NAME": "FENGYUN 1C DEB", "OBJECT_ID": "1999-025AC", "EPOCH": "2025-12-26T09:36:47.043072", "MEAN_MOTION": 12.61100887, "ECCENTRICITY": 0.08653898, "INCLINATION": 99.4099, "RA_OF_ASC_NODE": 164.8499, "ARG_OF_PERICENTER": 264.9138, "MEAN_ANOMALY": 85.2739, "EPHEMERIS_TYPE": 0, "CLASSIFICATION_TYPE": "U", "NORAD_CAT_ID": 29738, "ELEMENT_SET_NO": 999, "REV_AT_EPOCH": 86389, "BSTAR": 0.0040623725, "MEAN_MOTION_DOT": 3.072e-05, "MEAN_MOTION_DDOT": 0}, "tle": {"line1": "1 29738U 99025AC  25360.40054448  .00003072  00000+0  40624-2 0  9998", "line2": "2 29738  99.4099 164.8499 0865389 264.9138  85.2739 12.61100887863896"}}, "geometry": {"type": "Point", "coordinates": [156.4659273548565, 42.4257562833061]}}, {"type": "Feature", "properties": {"norad_id": 29740, "name": "FENGYUN 1C DEB", "group": "fengyun-1c-debris", "lat": -79.51039855023893, "lon": -30.995587361803157, "alt_km": 1630.5103628137222, "timestamp": "2025-12-26T19:22:39.177790+00:00", "meta": {"OBJECT_NAME": "FENGYUN 1C DEB", "OBJECT_ID": "1999-025AE", "EPOCH": "2025-12-25T00:15:21.341952", "MEAN_MOTION": 12.08324151, "ECCENTRICITY": 0.09735117, "INCLINATION": 99.0459, "RA_OF_ASC_NODE": 207.0726, "ARG_OF_PERICENTER": 174.1661, "MEAN_ANOMALY": 187.1776, "EPHEMERIS_TYPE": 0, "CLASSIFICATION_TYPE": "U", "NORAD_CAT_ID": 29740, "ELEMENT_SET_NO": 999, "REV_AT_EPOCH": 83083, "BSTAR": 5.4899658e-05, "MEAN_MOTION_DOT": -3e-08, "MEAN_MOTION_DDOT": 0}, "tle": {"line1": "1 29740U 99025AE  25359.01066368 -.00000003  00000+0  54900-4 0  9996", "line2": "2 29740  99.0459 207.0726 0973511 174.1661 187.1776 12.08324151830832"}}, "geometry": {"type": "Point", "coordinates": [-30.995587361803157, -79.51039855023893]}}, {"type": "Feature", "properties": {"norad_id": 29741, "name": "FENGYUN 1C DEB", "group": "fengyun-1c-debris", "lat": 54.46125350415926, "lon": 64.21787139638545, "alt_km": 1559.4829782343086, "timestamp": "2025-12-26T19:22:39.177801+00:00", "meta": {"OBJECT_NAME": "FENGYUN 1C DEB", "OBJECT_ID": "1999-025AF", "EPOCH": "2025-12-26T15:02:35.839680", "MEAN_MOTION": 12.0099756, "ECCENTRICITY": 0.10264568, "INCLINATION": 99.1725, "RA_OF_ASC_NODE": 231.0169, "ARG_OF_PERICENTER": 36.6627, "MEAN_ANOMALY": 15.5998, "EPHEMERIS_TYPE": 0, "CLASSIFICATION_TYPE": "U", "NORAD_CAT_ID": 29741, "ELEMENT_SET_NO": 999, "REV_AT_EPOCH": 52350, "BSTAR": 0.0059290303, "MEAN_MOTION_DOT": 2.318e-05, "MEAN_MOTION_DDOT": 0}, "tle": {"line1": "1 29741U 99025AF  25360.62680370  .00002318  00000+0  59290-2 0  9996", "line2": "2 29741  99.1725 231.0169 1026456  36.6627  15.5998 12.00997560523505"}}, "geometry": {"type": "Point", "coordinates": [64.21787139638545, 54.46125350415926]}}, {"type": "Feature", "properties": {"norad_id": 29748, "name": "FENGYUN 1C DEB", "group": "fengyun-1c-debris", "lat": -35.58162049993623, "lon": 101.03234075441657, "alt_km": 2156.5383780209095, "timestamp": "2025-12-26T19:22:39.177811+00:00", "meta": {"OBJECT_NAME": "FENGYUN 1C DEB", "OBJECT_ID": "1999-025AN", "EPOCH": "2025-12-24T01:35:25.055808", "MEAN_MOTION": 11.90656496, "ECCENTRICITY": 0.08691967, "INCLINATION": 99.7818, "RA_OF_ASC_NODE": 286.0832, "ARG_OF_PERICENTER": 352.5635, "MEAN_ANOMALY": 6.319, "EPHEMERIS_TYPE": 0, "CLASSIFICATION_TYPE": "U", "NORAD_CAT_ID": 29748, "ELEMENT_SET_NO": 999, "REV_AT_EPOCH": 78868, "BSTAR": 0.11647721, "MEAN_MOTION_DOT": 0.00024365, "MEAN_MOTION_DDOT": 0}, "tle": {"line1": "1 29748U 99025AN  25358.06626222  .00024365  00000+0  11648+0 0  9992", "line2": "2 29748  99.7818 286.0832 0869196 352.5635   6.3190 11.90656496788684"}}, "geometry": {"type": "Point", "coordinates": [101.03234075441657, -35.58162049993623]}}]}